{"type": "FeatureCollection", "features": [ {"type": "Feature", "properties": {"norad_id": 32440, "name": "FENGYUN 1C DEB", "group": "fengyun-1c-debris", "lat": 74.50298787348824, "lon": 65.44858522048638, "alt_km": 822.3672861633404, "timestamp": "2025-12-21T03:56:51.121751+00:00", "meta": {"OBJECT_NAME": "FENGYUN 1C DEB", "OBJECT_ID": "1999-025DBC", "EPOCH": "2025-12-17T07:44:52.778112", "MEAN_MOTION": 13.61291637, "ECCENTRICITY": 0.0322189, "INCLINATION": 99.1539, "RA_OF_ASC_NODE": 206.2845, "ARG_OF_PERICENTER": 78.9658, "MEAN_ANOMALY": 284.754, "EPHEMERIS_TYPE": 0, "CLASSIFICATION_TYPE": "U", "NORAD_CAT_ID": 32440, "ELEMENT_SET_NO": 999, "REV_AT_EPOCH": 60348, "BSTAR": 0.0028109, "MEAN_MOTION_DOT": 2.988e-05, "MEAN_MOTION_DDOT": 0}, "tle": {"line1": "1 32440U 99025DBC 25351.32283308  .00002988  00000+0  28109-2 0  9991", "line2": "2 32440  99.1539 206.2845 0322189  78.9658 284.7540 13.61291637603486"}}, "geometry": {"type": "Point", "coordinates": [65.44858522048638, 74.50298787348824]}}, {"type": "Feature", "properties": {"norad_id": 32447, "name": "FENGYUN 1C DEB", "group": "fengyun-1c-debris", "lat": -41.81934047885612, "lon": 19.126099343778012, "alt_km": 884.9948348014523, "timestamp": "2025-12-21T03:56:51.121760+00:00", "meta": {"OBJECT_NAME": "FENGYUN 1C DEB", "OBJECT_ID": "1999-025DBK", "EPOCH": "2025-12-09T20:22:18.261408", "MEAN_MOTION": 13.96013309, "ECCENTRICITY": 0.00800272, "INCLINATION": 98.9313, "RA_OF_ASC_NODE": 0.0649, "ARG_OF_PERICENTER": 49.1812, "MEAN_ANOMALY": 311.6255, "EPHEMERIS_TYPE": 0, "CLASSIFICATION_TYPE": "U", "NORAD_CAT_ID": 32447, "ELEMENT_SET_NO": 999, "REV_AT_EPOCH": 67838, "BSTAR": 0.00036340481, "MEAN_MOTION_DOT": 4.69e-06, "MEAN_MOTION_DDOT": 0}, "tle": {"line1": "1 32447U 99025DBK 25343.84882247  .00000469  00000+0  36340-3 0  9992", "line2": "2 32447  98.9313   0.0649 0080027  49.1812 311.6255 13.96013309678386"}}, "geometry": {"type": "Point", "coordinates": [19.126099343778012, -41.81934047885612]}}, {"type": "Feature", "properties": {"norad_id": 32451, "name": "FENGYUN 1C DEB", "group": "fengyun-1c-debris", "lat": 55.008725963663814, "lon": -39.06132748593021, "alt_km": 993.2545105987274, "timestamp": "2025-12-21T03:56:51.121770+00:00", "meta": {"OBJECT_NAME": "FENGYUN 1C DEB", "OBJECT_ID": "1999-025DBP", "EPOCH": "2025-12-20T17:16:42.554208", "MEAN_MOTION": 13.86609006, "ECCENTRICITY": 0.0184968, "INCLINATION": 99.9714, "RA_OF_ASC_NODE": 335.0209, "ARG_OF_PERICENTER": 173.8447, "MEAN_ANOMALY": 186.5042, "EPHEMERIS_TYPE": 0, "CLASSIFICATION_TYPE": "U", "NORAD_CAT_ID": 32451, "ELEMENT_SET_NO": 999, "REV_AT_EPOCH": 61875, "BSTAR": 0.0014006, "MEAN_MOTION_DOT": 1.814e-05, "MEAN_MOTION_DDOT": 0}, "tle": {"line1": "1 32451U 99025DBP 25354.71993697  .00001814  00000+0  14006-2 0  9996", "line2": "2 32451  99.9714 335.0209 0184968 173.8447 186.5042 13.86609006618750"}}, "geometry": {"type": "Point", "coordinates": [-39.06132748593021, 55.008725963663814]}}, {"type": "Feature", "properties": {"norad_id": 32453, "name": "FENGYUN 1C DEB", "group": "fengyun-1c-debris", "lat": 80.34781954153418, "lon": -171.07420501559383, "alt_km": 883.8363154204562, "timestamp": "2025-12-21T03:56:51.121780+00:00", "meta": {"OBJECT_NAME": "FENGYUN 1C DEB", "OBJECT_ID": "1999-025DBR", "EPOCH": "2025-12-20T12:06:47.634336", "MEAN_MOTION": 14.02265875, "ECCENTRICITY": 0.0096344, "INCLINATION": 99.3721, "RA_OF_ASC_NODE": 264.4295, "ARG_OF_PERICENTER": 184.4323, "MEAN_ANOMALY": 175.5998, "EPHEMERIS_TYPE": 0, "CLASSIFICATION_TYPE": "U", "NORAD_CAT_ID": 32453, "ELEMENT_SET_NO": 999, "REV_AT_EPOCH": 93537, "BSTAR": 0.00034922, "MEAN_MOTION_DOT": 5.1e-06, "MEAN_MOTION_DDOT": 0}, "tle": {"line1": "1 32453U 99025DBR 25354.50471799  .00000510  00000+0  34922-3 0  9991", "line2": "2 32453  99.3721 264.4295 0096344 184.4323 175.5998 14.02265875935374"}}, "geometry": {"type": "Point", "coordinates": [-171.07420501559383, 80.34781954153418]}}, {"type": "Feature", "properties": {"norad_id": 32455, "name": "FENGYUN 1C DEB", "group": "fengyun-1c-debris", "lat": -42.09829985762446, "lon": -1.3139184999301385, "alt_km": 948.6584476113394, "timestamp": "2025-12-21T03:56:51.121790+00:00", "meta": {"OBJECT_NAME": "FENGYUN 1C DEB", "OBJECT_ID": "1999-025DBT", "EPOCH": "2025-12-19T18:08:22.954272", "MEAN_MOTION": 13.92504596, "ECCENTRICITY": 0.02356741, "INCLINATION": 101.733, "RA_OF_ASC_NODE": 187.728, "ARG_OF_PERICENTER": 127.7857, "MEAN_ANOMALY": 234.4892, "EPHEMERIS_TYPE": 0, "CLASSIFICATION_TYPE": "U", "NORAD_CAT_ID": 32455, "ELEMENT_SET_NO": 999, "REV_AT_EPOCH": 64513, "BSTAR": 0.001718498, "MEAN_MOTION_DOT": 2.717e-05, "MEAN_MOTION_DDOT": 0}, "tle": {"line1": "1 32455U 99025DBT 25353.75582123  .00002717  00000+0  17185-2 0  9995", "line2": "2 32455 101.7330 187.7280 0235674 127.7857 234.4892 13.92504596645138"}}, "geometry": {"type": "Point", "coordinates": [-1.3139184999301385, -42.09829985762446]}}, {"type": "Feature", "properties": {"norad_id": 32456, "name": "FENGYUN 1C DEB", "group": "fengyun-1c-debris", "lat": 10.3712690774279, "lon": -39.08657060044165, "alt_km": 901.5296640052757, "timestamp": "2025-12-21T03:56:51.121799+00:00", "meta": {"OBJECT_NAME": "FENGYUN 1C DEB", "OBJECT_ID": "1999-025DBU", "EPOCH": "2025-12-17T03:48:04.533120", "MEAN_MOTION": 13.35640436, "ECCENTRICITY": 0.03794971, "INCLINATION": 103.6656, "RA_OF_ASC_NODE": 133.0133, "ARG_OF_PERICENTER": 216.4895, "MEAN_ANOMALY": 140.98, "EPHEMERIS_TYPE": 0, "CLASSIFICATION_TYPE": "U", "NORAD_CAT_ID": 32456, "ELEMENT_SET_NO": 999, "REV_AT_EPOCH": 60675, "BSTAR": 0.0016364212, "MEAN_MOTION_DOT": 1.184e-05, "MEAN_MOTION_DDOT": 0}, "tle": {"line1": "1 32456U 99025DBU 25351.15838580  .00001184  00000+0  16364-2 0  9994", "line2": "2 32456 103.6656 133.0133 0379497 216.4895 140.9800 13.35640436606758"}}, "geometry": {"type": "Point", "coordinates": [-39.08657060044165, 10.3712690774279]}}, {"type": "Feature", "properties": {"norad_id": 32458, "name": "FENGYUN 1C DEB", "group": "fengyun-1c-debris", "lat": 72.99091528728155, "lon": -15.541473633788494, "alt_km": 677.0572387220009, "timestamp": "2025-12-21T03:56:51.121809+00:00", "meta": {"OBJECT_NAME": "FENGYUN 1C DEB", "OBJECT_ID": "1999-025DBW", "EPOCH": "2025-12-17T07:38:45.791520", "MEAN_MOTION": 14.62340298, "ECCENTRICITY": 0.00400557, "INCLINATION": 99.0455, "RA_OF_ASC_NODE": 11.634, "ARG_OF_PERICENTER": 359.8936, "MEAN_ANOMALY": 0.2248, "EPHEMERIS_TYPE": 0, "CLASSIFICATION_TYPE": "U", "NORAD_CAT_ID": 32458, "ELEMENT_SET_NO": 999, "REV_AT_EPOCH": 67856, "BSTAR": 0.0011308111, "MEAN_MOTION_DOT": 5.724e-05, "MEAN_MOTION_DDOT": 0}, "tle": {"line1": "1 32458U 99025DBW 25351.31858555  .00005724  00000+0  11308-2 0  9995", "line2": "2 32458  99.0455  11.6340 0040055 359.8936   0.2248 14.62340298678565"}}, "geometry": {"type": "Point", "coordinates": [-15.541473633788494, 72.99091528728155]}}, {"type": "Feature", "properties": {"norad_id": 32459, "name": "FENGYUN 1C DEB", "group": "fengyun-1c-debris", "lat": -80.58877398717004, "lon": 70.92804247908356, "alt_km": 814.6849166742586, "timestamp": "2025-12-21T03:56:51.121818+00:00", "meta": {"OBJECT_NAME": "FENGYUN 1C DEB", "OBJECT_ID": "1999-025DBX", "EPOCH": "2025-12-20T18:22:17.199840", "MEAN_MOTION": 14.42837201, "ECCENTRICITY": 0.0213645, "INCLINATION": 98.3013, "RA_OF_ASC_NODE": 8.7931, "ARG_OF_PERICENTER": 162.061, "MEAN_ANOMALY": 198.8272, "EPHEMERIS_TYPE": 0, "CLASSIFICATION_TYPE": "U", "NORAD_CAT_ID": 32459, "ELEMENT_SET_NO": 999, "REV_AT_EPOCH": 94666, "BSTAR": 0.00028324, "MEAN_MOTION_DOT": 1.194e-05, "MEAN_MOTION_DDOT": 0}, "tle": {"line1": "1 32459U 99025DBX 25354.76547685  .00001194  00000+0  28324-3 0  9991", "line2": "2 32459  98.3013   8.7931 0213645 162.0610 198.8272 14.42837201946664"}}, "geometry": {"type": "Point", "coordinates": [70.92804247908356, -80.58877398717004]}}, {"type": "Feature", "properties": {"norad_id": 32460, "name": "FENGYUN 1C DEB", "group": "fengyun-1c-debris", "lat": 34.39676234882193, "lon": -35.27952569795013, "alt_km": 829.7594726603365, "timestamp": "2025-12-21T03:56:51.121827+00:00", "meta": {"OBJECT_NAME": "FENGYUN 1C DEB", "OBJECT_ID": "1999-025DBY", "EPOCH": "2025-12-16T16:07:35.360256", "MEAN_MOTION": 13.89589165, "ECCENTRICITY": 0.01851829, "INCLINATION": 98.0198, "RA_OF_ASC_NODE": 135.3065, "ARG_OF_PERICENTER": 113.3101, "MEAN_ANOMALY": 248.7668, "EPHEMERIS_TYPE": 0, "CLASSIFICATION_TYPE": "U", "NORAD_CAT_ID": 32460, "ELEMENT_SET_NO": 999, "REV_AT_EPOCH": 65308, "BSTAR": 0.0008481014, "MEAN_MOTION_DOT": 1.158e-05, "MEAN_MOTION_DDOT": 0}, "tle": {"line1": "1 32460U 99025DBY 25350.67193704  .00001158  00000+0  84810-3 0  9990", "line2": "2 32460  98.0198 135.3065 0185182 113.3101 248.7668 13.89589165653088"}}, "geometry": {"type": "Point", "coordinates": [-35.27952569795013, 34.39676234882193]}}, {"type": "Feature", "properties": {"norad_id": 32461, "name": "FENGYUN 1C DEB", "group": "fengyun-1c-debris", "lat": 78.5285270821069, "lon": 75.50384039939226, "alt_km": 811.1004049387884, "timestamp": "2025-12-21T03:56:51.121836+00:00", "meta": {"OBJECT_NAME": "FENGYUN 1C DEB", "OBJECT_ID": "1999-025DBZ", "EPOCH": "2025-12-17T02:15:31.192128", "MEAN_MOTION": 13.72843893, "ECCENTRICITY": 0.02323804, "INCLINATION": 98.3342, "RA_OF_ASC_NODE": 205.71, "ARG_OF_PERICENTER": 105.2455, "MEAN_ANOMALY": 46.6373, "EPHEMERIS_TYPE": 0, "CLASSIFICATION_TYPE": "U", "NORAD_CAT_ID": 32461, "ELEMENT_SET_NO": 999, "REV_AT_EPOCH": 67354, "BSTAR": 0.0011039273, "MEAN_MOTION_DOT": 1.2e-05, "MEAN_MOTION_DDOT": 0}, "tle": {"line1": "1 32461U 99025DBZ 25351.09411102  .00001200  00000+0  11039-2 0  9993", "line2": "2 32461  98.3342 205.7100 0232380 105.2455  46.6373 13.72843893673544"}}, "geometry": {"type": "Point", "coordinates": [75.50384039939226, 78.5285270821069]}}]}